[{"OBJECT_NAME":"STARLINK-5031","OBJECT_ID":"2022-119D","EPOCH":"2026-03-09T21:30:50.657760","MEAN_MOTION":15.08819004,"ECCENTRICITY":0.00012739,"INCLINATION":53.2167,"RA_OF_ASC_NODE":323.3437,"ARG_OF_PERICENTER":84.5556,"MEAN_ANOMALY":275.5581,"EPHEMERIS_TYPE":0,"CLASSIFICATION_TYPE":"U","NORAD_CAT_ID":53889,"ELEMENT_SET_NO":999,"REV_AT_EPOCH":19171,"BSTAR":0.00037859423,"MEAN_MOTION_DOT":5.739e-5,"MEAN_MOTION_DDOT":0},{"OBJECT_NAME":"PEGASUS DEB","OBJECT_ID":"1994-029AEX","EPOCH":"2026-03-09T10:21:12.559968","MEAN_MOTION":14.69785081,"ECCENTRICITY":0.01957394,"INCLINATION":81.9702,"RA_OF_ASC_NODE":117.9188,"ARG_OF_PERICENTER":51.5385,"MEAN_ANOMALY":310.3202,"EPHEMERIS_TYPE":0,"CLASSIFICATION_TYPE":"U","NORAD_CAT_ID":39312,"ELEMENT_SET_NO":999,"REV_AT_EPOCH":67444,"BSTAR":0.0006881266,"MEAN_MOTION_DOT":5.551e-5,"MEAN_MOTION_DDOT":0}]
